SENTINEL-6              
1 46984U 20086A   24288.45360919 -.00000021  00000+0  17348-3 0  9997
2 46984  66.0423 323.5559 0007887 269.4905  90.5206 12.80929246182108
